CCSDS_OMM_VERS = 2.0
CREATION_DATE  = 
ORIGINATOR     = 

OBJECT_NAME    = YOTSUBA-KULOVER
OBJECT_ID      = 1998-067XN
CENTER_NAME    = EARTH
REF_FRAME      = TEME
TIME_SYSTEM    = UTC
MEAN_ELEMENT_THEORY = SGP/SGP4

EPOCH          = 2026-03-05T05:07:31.209024
MEAN_MOTION    = 15.78483235
ECCENTRICITY   = .00060061
INCLINATION    = 51.6207
RA_OF_ASC_NODE = 80.4741
ARG_OF_PERICENTER = 39.9520
MEAN_ANOMALY   = 320.1922

EPHEMERIS_TYPE = 0
CLASSIFICATION_TYPE = U
NORAD_CAT_ID   = 65941
ELEMENT_SET_NO = 999
REV_AT_EPOCH   = 2279
BSTAR          = .11389985E-2
MEAN_MOTION_DOT = .206402E-2
MEAN_MOTION_DDOT = 0

CCSDS_OMM_VERS = 2.0
CREATION_DATE  = 
ORIGINATOR     = 

OBJECT_NAME    = BOTAN
OBJECT_ID      = 1998-067XP
CENTER_NAME    = EARTH
REF_FRAME      = TEME
TIME_SYSTEM    = UTC
MEAN_ELEMENT_THEORY = SGP/SGP4

EPOCH          = 2026-03-03T07:18:10.975680
MEAN_MOTION    = 16.26065139
ECCENTRICITY   = .00029265
INCLINATION    = 51.6040
RA_OF_ASC_NODE = 82.5602
ARG_OF_PERICENTER = 46.9281
MEAN_ANOMALY   = 313.1984

EPHEMERIS_TYPE = 0
CLASSIFICATION_TYPE = U
NORAD_CAT_ID   = 65942
ELEMENT_SET_NO = 999
REV_AT_EPOCH   = 2259
BSTAR          = .14502781E-2
MEAN_MOTION_DOT = .4760636E-1
MEAN_MOTION_DDOT = .12040774E-4

CCSDS_OMM_VERS = 2.0
CREATION_DATE  = 
ORIGINATOR     = 

OBJECT_NAME    = E-KAGAKU-1
OBJECT_ID      = 1998-067XQ
CENTER_NAME    = EARTH
REF_FRAME      = TEME
TIME_SYSTEM    = UTC
MEAN_ELEMENT_THEORY = SGP/SGP4

EPOCH          = 2026-03-05T05:12:38.526912
MEAN_MOTION    = 15.78200281
ECCENTRICITY   = .00061946
INCLINATION    = 51.6242
RA_OF_ASC_NODE = 80.5167
ARG_OF_PERICENTER = 46.2025
MEAN_ANOMALY   = 313.9487

EPHEMERIS_TYPE = 0
CLASSIFICATION_TYPE = U
NORAD_CAT_ID   = 65943
ELEMENT_SET_NO = 999
REV_AT_EPOCH   = 2279
BSTAR          = .10948851E-2
MEAN_MOTION_DOT = .195636E-2
MEAN_MOTION_DDOT = 0

CCSDS_OMM_VERS = 2.0
CREATION_DATE  = 
ORIGINATOR     = 

OBJECT_NAME    = HRC MONOBLOCK CAMERA
OBJECT_ID      = 1998-067XR
CENTER_NAME    = EARTH
REF_FRAME      = TEME
TIME_SYSTEM    = UTC
MEAN_ELEMENT_THEORY = SGP/SGP4

EPOCH          = 2026-03-05T05:19:12.909216
MEAN_MOTION    = 15.61646282
ECCENTRICITY   = .00034566
INCLINATION    = 51.6269
RA_OF_ASC_NODE = 88.0738
ARG_OF_PERICENTER = 70.8864
MEAN_ANOMALY   = 289.2504

EPHEMERIS_TYPE = 0
CLASSIFICATION_TYPE = U
NORAD_CAT_ID   = 66052
ELEMENT_SET_NO = 999
REV_AT_EPOCH   = 2169
BSTAR          = .64140548E-3
MEAN_MOTION_DOT = .56203E-3
MEAN_MOTION_DDOT = 0

CCSDS_OMM_VERS = 2.0
CREATION_DATE  = 
ORIGINATOR     = 

OBJECT_NAME    = HTV-X1
OBJECT_ID      = 2025-241A
CENTER_NAME    = EARTH
REF_FRAME      = TEME
TIME_SYSTEM    = UTC
MEAN_ELEMENT_THEORY = SGP/SGP4

EPOCH          = 2026-03-05T06:05:40.876512
MEAN_MOTION    = 15.48454548
ECCENTRICITY   = .00081607
INCLINATION    = 51.6314
RA_OF_ASC_NODE = 94.2866
ARG_OF_PERICENTER = 158.8383
MEAN_ANOMALY   = 201.2944

EPHEMERIS_TYPE = 0
CLASSIFICATION_TYPE = U
NORAD_CAT_ID   = 66174
ELEMENT_SET_NO = 999
REV_AT_EPOCH   = 55447
BSTAR          = .16717327E-3
MEAN_MOTION_DOT = .8604E-4
MEAN_MOTION_DDOT = 0

CCSDS_OMM_VERS = 2.0
CREATION_DATE  = 
ORIGINATOR     = 

OBJECT_NAME    = SZ-21 MODULE
OBJECT_ID      = 2025-246C
CENTER_NAME    = EARTH
REF_FRAME      = TEME
TIME_SYSTEM    = UTC
MEAN_ELEMENT_THEORY = SGP/SGP4

EPOCH          = 2026-03-05T04:05:15.475200
MEAN_MOTION    = 15.68139607
ECCENTRICITY   = .00014689
INCLINATION    = 41.4734
RA_OF_ASC_NODE = 231.1730
ARG_OF_PERICENTER = 290.3140
MEAN_ANOMALY   = 69.7543

EPHEMERIS_TYPE = 0
CLASSIFICATION_TYPE = U
NORAD_CAT_ID   = 66515
ELEMENT_SET_NO = 999
REV_AT_EPOCH   = 1736
BSTAR          = .35896004E-3
MEAN_MOTION_DOT = .41059E-3
MEAN_MOTION_DDOT = 0

CCSDS_OMM_VERS = 2.0
CREATION_DATE  = 
ORIGINATOR     = 

OBJECT_NAME    = SHENZHOU-22
OBJECT_ID      = 2025-272A
CENTER_NAME    = EARTH
REF_FRAME      = TEME
TIME_SYSTEM    = UTC
MEAN_ELEMENT_THEORY = SGP/SGP4

EPOCH          = 2026-03-04T21:58:42.573792
MEAN_MOTION    = 15.60409426
ECCENTRICITY   = .00068036
INCLINATION    = 41.4655
RA_OF_ASC_NODE = 237.2033
ARG_OF_PERICENTER = 243.7897
MEAN_ANOMALY   = 116.2243

EPHEMERIS_TYPE = 0
CLASSIFICATION_TYPE = U
NORAD_CAT_ID   = 66645
ELEMENT_SET_NO = 999
REV_AT_EPOCH   = 26752
BSTAR          = .26479219E-3
MEAN_MOTION_DOT = .22117E-3
MEAN_MOTION_DDOT = 0

CCSDS_OMM_VERS = 2.0
CREATION_DATE  = 
ORIGINATOR     = 

OBJECT_NAME    = SOYUZ-MS 28
OBJECT_ID      = 2025-275A
CENTER_NAME    = EARTH
REF_FRAME      = TEME
TIME_SYSTEM    = UTC
MEAN_ELEMENT_THEORY = SGP/SGP4

EPOCH          = 2026-03-05T06:05:40.876512
MEAN_MOTION    = 15.48454548
ECCENTRICITY   = .00081607
INCLINATION    = 51.6314
RA_OF_ASC_NODE = 94.2866
ARG_OF_PERICENTER = 158.8383
MEAN_ANOMALY   = 201.2944

EPHEMERIS_TYPE = 0
CLASSIFICATION_TYPE = U
NORAD_CAT_ID   = 66664
ELEMENT_SET_NO = 999
REV_AT_EPOCH   = 55452
BSTAR          = .16717327E-3
MEAN_MOTION_DOT = .8604E-4
MEAN_MOTION_DDOT = 0

CCSDS_OMM_VERS = 2.0
CREATION_DATE  = 
ORIGINATOR     = 

OBJECT_NAME    = DUPLEX
OBJECT_ID      = 1998-067XS
CENTER_NAME    = EARTH
REF_FRAME      = TEME
TIME_SYSTEM    = UTC
MEAN_ELEMENT_THEORY = SGP/SGP4

EPOCH          = 2026-03-04T09:12:56.728224
MEAN_MOTION    = 15.55826494
ECCENTRICITY   = .00020746
INCLINATION    = 51.6284
RA_OF_ASC_NODE = 95.9816
ARG_OF_PERICENTER = 91.8511
MEAN_ANOMALY   = 268.2718

EPHEMERIS_TYPE = 0
CLASSIFICATION_TYPE = U
NORAD_CAT_ID   = 66906
ELEMENT_SET_NO = 999
REV_AT_EPOCH   = 1430
BSTAR          = .60283877E-3
MEAN_MOTION_DOT = .42212E-3
MEAN_MOTION_DDOT = 0

CCSDS_OMM_VERS = 2.0
CREATION_DATE  = 
ORIGINATOR     = 

OBJECT_NAME    = ISS OBJECT XT
OBJECT_ID      = 1998-067XT
CENTER_NAME    = EARTH
REF_FRAME      = TEME
TIME_SYSTEM    = UTC
MEAN_ELEMENT_THEORY = SGP/SGP4

EPOCH          = 2026-03-05T06:00:20.254752
MEAN_MOTION    = 15.67725621
ECCENTRICITY   = .00046582
INCLINATION    = 51.6250
RA_OF_ASC_NODE = 88.2545
ARG_OF_PERICENTER = 50.5727
MEAN_ANOMALY   = 309.5681

EPHEMERIS_TYPE = 0
CLASSIFICATION_TYPE = U
NORAD_CAT_ID   = 66907
ELEMENT_SET_NO = 999
REV_AT_EPOCH   = 1448
BSTAR          = .13383571E-2
MEAN_MOTION_DOT = .151937E-2
MEAN_MOTION_DDOT = 0

CCSDS_OMM_VERS = 2.0
CREATION_DATE  = 
ORIGINATOR     = 

OBJECT_NAME    = ISS OBJECT XU
OBJECT_ID      = 1998-067XU
CENTER_NAME    = EARTH
REF_FRAME      = TEME
TIME_SYSTEM    = UTC
MEAN_ELEMENT_THEORY = SGP/SGP4

EPOCH          = 2026-03-04T07:01:15.985632
MEAN_MOTION    = 15.67514512
ECCENTRICITY   = .0004676
INCLINATION    = 51.6245
RA_OF_ASC_NODE = 93.1068
ARG_OF_PERICENTER = 47.0078
MEAN_ANOMALY   = 313.1309

EPHEMERIS_TYPE = 0
CLASSIFICATION_TYPE = U
NORAD_CAT_ID   = 66908
ELEMENT_SET_NO = 999
REV_AT_EPOCH   = 1433
BSTAR          = .16844747E-2
MEAN_MOTION_DOT = .190633E-2
MEAN_MOTION_DDOT = 0

CCSDS_OMM_VERS = 2.0
CREATION_DATE  = 
ORIGINATOR     = 

OBJECT_NAME    = SILVERSAT
OBJECT_ID      = 1998-067XV
CENTER_NAME    = EARTH
REF_FRAME      = TEME
TIME_SYSTEM    = UTC
MEAN_ELEMENT_THEORY = SGP/SGP4

EPOCH          = 2026-03-05T06:10:54.547392
MEAN_MOTION    = 15.70352988
ECCENTRICITY   = .0005476
INCLINATION    = 51.6245
RA_OF_ASC_NODE = 87.5489
ARG_OF_PERICENTER = 49.7289
MEAN_ANOMALY   = 310.4186

EPHEMERIS_TYPE = 0
CLASSIFICATION_TYPE = U
NORAD_CAT_ID   = 66909
ELEMENT_SET_NO = 999
REV_AT_EPOCH   = 1449
BSTAR          = .1501994E-2
MEAN_MOTION_DOT = .191073E-2
MEAN_MOTION_DDOT = 0

